OBJECT_NAME,OBJECT_ID,EPOCH,MEAN_MOTION,ECCENTRICITY,INCLINATION,RA_OF_ASC_NODE,ARG_OF_PERICENTER,MEAN_ANOMALY,EPHEMERIS_TYPE,CLASSIFICATION_TYPE,NORAD_CAT_ID,ELEMENT_SET_NO,REV_AT_EPOCH,BSTAR,MEAN_MOTION_DOT,MEAN_MOTION_DDOT
STARLINK-5303,2023-021C,2026-06-19T16:16:50.323008,14.98324762,.0002777,69.9995,307.3643,274.5394,85.5448,0,U,55630,999,18357,.25409E-3,.294E-4,0
STARLINK-5558,2023-021D,2026-06-19T18:53:01.070016,14.98334966,.0003086,70.0001,306.9390,270.8331,89.2474,0,U,55631,999,18359,.63629E-4,.666E-5,0
STARLINK-5546,2023-021E,2026-06-19T19:17:03.619968,14.98331252,.000309,69.9994,306.9958,268.1888,91.8917,0,U,55632,999,18359,.25927E-4,.216E-5,0
STARLINK-5498,2023-021F,2026-06-19T19:11:02.942304,14.98330309,.0003388,69.9994,306.9822,268.9012,91.1759,0,U,55633,999,18359,.24008E-4,.193E-5,0
STARLINK-5500,2023-021G,2026-06-19T17:41:09.913056,14.98332626,.0003084,69.9995,307.1661,270.6005,89.4801,0,U,55634,999,18357,.52534E-4,.534E-5,0
STARLINK-5495,2023-021H,2026-06-19T17:10:32.719872,14.98333660,.0003192,69.9990,287.2224,268.4581,91.6213,0,U,55635,999,18407,.44717E-4,.441E-5,0
STARLINK-5218,2023-021J,2026-06-19T17:22:53.630976,14.98330434,.0003153,69.9997,307.1221,268.1588,91.9210,0,U,55636,999,18358,.20693E-4,.154E-5,0
STARLINK-5062,2023-021K,2026-06-19T17:34:35.573088,14.98329976,.0003308,69.9996,287.2791,268.7425,91.3355,0,U,55637,999,18407,.33325E-6,-.89E-6,0
STARLINK-5507,2023-021L,2026-06-19T19:05:03.164064,14.98339959,.0003119,69.9996,306.9682,263.4754,96.6050,0,U,55638,999,18359,.97154E-4,.1067E-4,0
STARLINK-5508,2023-021M,2026-06-19T17:04:46.922016,14.98338950,.0003449,69.9991,287.2058,263.7081,96.3685,0,U,55639,999,18407,-.11008E-4,-.224E-5,0
STARLINK-5069,2023-021N,2026-06-19T16:58:31.673856,14.98331288,.0002758,69.9995,287.1898,267.4632,92.6212,0,U,55640,999,18407,-.5536E-5,-.159E-5,0
STARLINK-5065,2023-021P,2026-06-19T16:04:28.021728,14.98331770,.0003544,69.9994,287.4595,267.7351,92.3402,0,U,55641,999,18406,.30164E-4,.267E-5,0
STARLINK-5483,2023-021R,2026-06-19T16:16:29.597376,14.98329105,.0003354,69.9995,287.4862,270.4293,89.6481,0,U,55643,999,18406,-.28654E-5,-.127E-5,0
STARLINK-5502,2023-021S,2026-06-19T17:22:34.559040,14.98338147,.0003008,69.9989,287.2494,263.1812,96.9005,0,U,55644,999,18407,.49508E-4,.498E-5,0
STARLINK-5510,2023-021V,2026-06-19T16:34:28.449120,14.98339622,.00032,69.9994,287.1313,271.2809,88.7984,0,U,55647,999,18407,-.16384E-3,-.2048E-4,0
STARLINK-5501,2023-021W,2026-06-19T17:16:33.722400,14.98329048,.0003165,69.9988,287.2340,267.6433,92.4364,0,U,55648,999,18407,.9971E-5,.26E-6,0
STARLINK-5469,2023-021X,2026-06-19T16:46:30.419616,14.98330378,.0003203,69.9995,287.1601,272.4530,87.6262,0,U,55649,999,18407,-.33005E-4,-.487E-5,0
STARLINK-5494,2023-021Y,2026-06-19T17:04:32.314368,14.98333390,.0002917,69.9994,287.2042,267.3972,92.6853,0,U,55650,999,18407,.40458E-5,-.45E-6,0
STARLINK-5506,2023-021Z,2026-06-19T15:52:26.904864,14.98330189,.0003276,69.9994,287.4325,267.0951,92.9834,0,U,55651,999,18406,.28735E-4,.25E-5,0
STARLINK-5487,2023-021AA,2026-06-19T16:52:31.035936,14.98329627,.0003231,69.9992,287.1752,267.3617,92.7172,0,U,55652,999,18407,.7142E-5,-.8E-7,0
STARLINK-5067,2023-021AB,2026-06-19T16:28:28.386624,14.98333001,.0003068,69.9996,287.1176,268.3314,91.7493,0,U,55653,999,18407,.35606E-4,.332E-5,0
STARLINK-5070,2023-021AC,2026-06-19T16:10:28.614720,14.98347143,.0003239,69.9995,287.4779,271.3059,88.7729,0,U,55654,999,18406,-.18623E-3,-.2315E-4,0
STARLINK-5267,2023-021AD,2026-06-19T17:04:13.085184,14.98334262,.0003279,69.9994,267.3302,275.9743,84.1043,0,U,55655,999,18455,.32646E-4,.297E-5,0
STARLINK-5328,2023-021AF,2026-06-19T15:40:06.837024,14.98356778,.0003808,69.9991,267.5269,276.1564,83.9161,0,U,55657,999,18455,-.2428E-3,-.2991E-4,0
STARLINK-5307,2023-021AG,2026-06-19T16:40:29.634816,14.98331491,.0003219,69.9997,287.1464,270.0766,90.0024,0,U,55658,999,18407,.42327E-5,-.43E-6,0
STARLINK-5477,2023-021AH,2026-06-19T15:34:06.060000,14.98338454,.0002883,69.9991,267.5119,267.0970,92.9859,0,U,55659,999,18454,.9929E-4,.1092E-4,0
STARLINK-5467,2023-021AJ,2026-06-19T15:58:05.814912,14.98335330,.0003162,69.9985,267.1755,270.2493,89.8304,0,U,55660,999,18456,.76584E-4,.821E-5,0
STARLINK-5475,2023-021AK,2026-06-19T16:46:11.064288,14.98330770,.0003244,69.9995,267.2878,269.1971,90.8817,0,U,55661,999,18456,.20333E-4,.15E-5,0
STARLINK-5479,2023-021AL,2026-06-19T15:36:54.789696,14.97530370,.000298,69.9994,267.5306,264.3908,95.6911,0,U,55662,999,18455,-.1165E-3,-.1454E-4,0
STARLINK-5473,2023-021AM,2026-06-19T16:34:09.829056,14.98329344,.0003243,69.9993,267.2567,269.7709,90.3079,0,U,55663,999,18455,.10201E-4,.29E-6,0
STARLINK-5480,2023-021AN,2026-06-19T16:58:13.203264,14.98336391,.0003092,69.9991,267.3158,259.9234,100.1576,0,U,55664,999,18456,-.65424E-5,-.171E-5,0
STARLINK-5474,2023-021AP,2026-06-19T13:15:52.998336,14.98330603,.00031966,69.9993,267.5797,270.9309,89.1484,0,U,55665,999,18453,.22706574E-4,.178E-5,0
STARLINK-5456,2023-021AR,2026-06-19T16:10:08.639904,14.98316085,.000331,69.9989,267.1987,269.2125,90.8655,0,U,55667,999,18455,-.1166E-3,-.1484E-4,0
STARLINK-5455,2023-021AS,2026-06-19T16:52:11.533728,14.98332986,.0003212,69.9998,267.3017,269.8090,90.2701,0,U,55668,999,18455,.2106E-5,-.68E-6,0
STARLINK-5459,2023-021AT,2026-06-19T16:40:10.411680,14.98330474,.0003296,69.9997,267.2724,269.1065,90.9717,0,U,55669,999,18455,.67713E-7,-.92E-6,0
STARLINK-5423,2023-021AU,2026-06-19T16:22:08.255136,14.98333146,.0003316,69.9988,267.2263,270.5131,89.5648,0,U,55670,999,18456,.52732E-4,.536E-5,0
STARLINK-5460,2023-021AV,2026-06-19T17:28:29.709696,14.98332137,.0003332,69.9992,267.3768,268.6403,91.4374,0,U,55671,999,18456,.10415E-4,.31E-6,0
STARLINK-5463,2023-021AX,2026-06-19T16:16:07.675104,14.98326479,.0003701,69.9981,267.2115,275.1672,84.9065,0,U,55673,999,18456,-.63215E-4,-.847E-5,0
STARLINK-5462,2023-021AY,2026-06-19T12:51:50.354208,14.98336354,.00037058,70.0005,267.5188,268.8735,91.2000,0,U,55674,999,18454,.28392288E-3,.3297E-4,0
STARLINK-5232,2023-021AZ,2026-06-19T15:52:05.246112,14.98330858,.0003253,69.9991,267.1546,268.9534,91.1252,0,U,55675,999,18456,.13437E-4,.67E-6,0
STARLINK-5300,2023-021BA,2026-06-19T11:27:38.534112,14.98336638,.00035156,69.9996,247.8456,269.0559,91.0197,0,U,55676,999,18502,.17360247E-3,.1979E-4,0
STARLINK-5324,2023-021BB,2026-06-19T11:09:23.578272,14.98333521,.00034012,69.9988,247.7987,268.4533,91.6237,0,U,55677,999,18502,.68133383E-4,.72E-5,0
STARLINK-5592,2023-028A,2026-06-19T16:11:28.827744,14.98329914,.0002656,70.0002,347.4319,273.2438,86.8418,0,U,55741,999,18150,.60362E-5,-.21E-6,0
STARLINK-5594,2023-028B,2026-06-19T16:17:29.469120,14.98324507,.0002217,70.0006,347.4473,270.9746,89.1159,0,U,55742,999,18131,.57504E-4,.593E-5,0
STARLINK-5602,2023-028C,2026-06-19T16:23:30.132960,14.98329907,.0003015,69.9998,347.4631,267.7565,92.3249,0,U,55743,999,18131,.46188E-5,-.38E-6,0
STARLINK-5601,2023-028D,2026-06-19T16:17:45.486816,14.98320970,.0002791,70.0005,347.4477,265.7328,94.3512,0,U,55744,999,18131,-.70962E-4,-.939E-5,0
STARLINK-5579,2023-028F,2026-06-19T15:35:24.995904,14.98333309,.0002886,69.9997,347.3451,265.5605,94.5224,0,U,55746,999,18131,.30185E-4,.267E-5,0
STARLINK-5539,2023-028G,2026-06-19T17:35:35.799936,14.98321632,.0002913,70.0002,347.2343,271.0518,89.0307,0,U,55747,999,18132,.6835E-4,.722E-5,0
STARLINK-5580,2023-028H,2026-06-19T15:53:28.311072,14.98328339,.0002823,70.0006,347.3890,251.8100,108.2752,0,U,55748,999,18131,.77557E-4,.832E-5,0
STARLINK-5573,2023-028K,2026-06-19T15:47:25.967616,14.98333254,.000292,69.9998,347.3733,268.6677,91.4147,0,U,55750,999,18131,.36933E-4,.348E-5,0
STARLINK-5577,2023-028L,2026-06-19T17:41:36.156192,14.98330650,.0003004,70.0003,347.2494,268.1967,91.8848,0,U,55751,999,18132,-.26764E-5,-.125E-5,0
STARLINK-5613,2023-028M,2026-06-19T16:47:30.547104,14.98339598,.0003025,69.9995,347.1169,269.2305,90.8507,0,U,55752,999,18132,.36554E-4,.343E-5,0
STARLINK-5617,2023-028N,2026-06-19T15:35:39.112800,14.98330566,.0003089,69.9994,347.3461,266.1491,93.9315,0,U,55753,999,18131,.44237E-5,-.4E-6,0
STARLINK-5612,2023-028P,2026-06-19T13:47:15.539424,14.98329776,.00027977,69.9994,347.4828,269.2885,90.7954,0,U,55754,999,18130,.26102528E-4,.218E-5,0
STARLINK-5614,2023-028R,2026-06-19T16:35:29.363712,14.98329300,.0002708,69.9997,347.0870,266.9375,93.1474,0,U,55756,999,18132,-.21396E-4,-.348E-5,0
STARLINK-5544,2023-028S,2026-06-19T17:05:32.391744,14.98329865,.0002793,69.9994,347.1611,269.3084,90.7755,0,U,55757,999,18132,.38642E-4,.368E-5,0
STARLINK-5072,2023-028T,2026-06-19T16:53:31.037280,14.98329024,.0003039,69.9995,347.1319,270.1988,89.8823,0,U,55758,999,18132,.27537E-4,.236E-5,0
STARLINK-5532,2023-028V,2026-06-19T16:29:28.408704,14.98333278,.0002898,70.0000,347.0742,266.7092,93.3735,0,U,55760,999,18132,.28758E-4,.25E-5,0
STARLINK-5611,2023-028W,2026-06-19T20:47:46.391424,14.98333526,.0003056,69.9996,327.0162,267.7758,92.3051,0,U,55761,999,18183,.24918E-4,.204E-5,0
STARLINK-5603,2023-028X,2026-06-19T17:17:14.286336,14.98336526,.000292,69.9995,327.3080,268.0562,92.0262,0,U,55762,999,18181,-.4758E-4,-.661E-5,0
STARLINK-5593,2023-028Y,2026-06-19T16:41:29.664672,14.98329796,.0003119,69.9995,347.1029,266.5750,93.5053,0,U,55763,999,18132,-.10669E-6,-.94E-6,0
STARLINK-5499,2023-028Z,2026-06-19T17:23:16.615968,14.98322280,.0003049,69.9995,327.3225,269.1027,90.9783,0,U,55764,999,18181,.52756E-4,.536E-5,0
STARLINK-5595,2023-028AA,2026-06-19T17:29:15.824832,14.98340841,.0002831,69.9995,327.3368,274.9750,85.1086,0,U,55765,999,18181,.54243E-4,.554E-5,0
STARLINK-5599,2023-028AB,2026-06-19T20:05:27.716640,14.98339464,.0003393,69.9995,326.9126,266.8699,93.2072,0,U,55766,999,18183,.55211E-4,.566E-5,0
STARLINK-5606,2023-028AC,2026-06-19T20:47:33.396000,14.98330105,.0003258,69.9991,327.0157,265.7336,94.3450,0,U,55767,999,18181,.10153E-3,.1119E-4,0
STARLINK-5584,2023-028AE,2026-06-19T20:17:28.995936,14.98330033,.0003146,69.9997,326.9420,264.5659,95.5141,0,U,55769,999,18183,.27548E-4,.236E-5,0
